CCSDS_OMM_VERS,COMMENT,CREATION_DATE,ORIGINATOR,OBJECT_NAME,OBJECT_ID,CENTER_NAME,REF_FRAME,TIME_SYSTEM,MEAN_ELEMENT_THEORY,EPOCH,MEAN_MOTION,ECCENTRICITY,INCLINATION,RA_OF_ASC_NODE,ARG_OF_PERICENTER,MEAN_ANOMALY,EPHEMERIS_TYPE,CLASSIFICATION_TYPE,NORAD_CAT_ID,ELEMENT_SET_NO,REV_AT_EPOCH,BSTAR,MEAN_MOTION_DOT,MEAN_MOTION_DDOT,SEMIMAJOR_AXIS,PERIOD,APOAPSIS,PERIAPSIS,OBJECT_TYPE,RCS_SIZE,COUNTRY_CODE,LAUNCH_DATE,SITE,DECAY_DATE,FILE,GP_ID,TLE_LINE0,TLE_LINE1,TLE_LINE2,,,,,,,AVG_ALTITUDE,,AVG_VELOCITY
2,GENERATED VIA SPACE-TRACK.ORG API,2022-06-03T02:31:39,18 SPCS,SPACEBEE-16,2020-061AN,EARTH,TEME,UTC,SGP4,2022-06-02T16:03:25.436160,15.19344702,0.0001864,97.4518,226.2547,167.3366,192.7916,0,U,46308,999,9630,0.00057555,0.00012107,0,6885.957,94.778,509.105,506.538,PAYLOAD,SMALL,US,9/3/2020,FRGUI,,3477983,205210403,0 SPACEBEE-16,1 46308U 20061AN  22153.66904440  .00012107  00000-0  57555-3 0  9997,2 46308  97.4518 226.2547 0001864 167.3366 192.7916 15.19344702 96305,,,,,,,515.957,,7.608284892
2,GENERATED VIA SPACE-TRACK.ORG API,2022-06-03T07:16:12,18 SPCS,SPACEBEE-12,2020-061AP,EARTH,TEME,UTC,SGP4,2022-06-03T04:36:54.731232,15.20033365,0.000206,97.4516,226.926,167.432,192.6966,0,U,46309,999,9639,0.00058371,0.00012528,0,6883.877,94.735,507.16,504.324,PAYLOAD,SMALL,US,9/3/2020,FRGUI,,3478488,205226810,0 SPACEBEE-12,1 46309U 20061AP  22154.19230013  .00012528  00000-0  58371-3 0  9999,2 46309  97.4516 226.9260 0002060 167.4320 192.6966 15.20033365 96398,,,,,,,513.877,,7.609434247
2,GENERATED VIA SPACE-TRACK.ORG API,2022-06-03T06:56:14,18 SPCS,SPACEBEE-13,2020-061AQ,EARTH,TEME,UTC,SGP4,2022-06-03T03:40:25.444992,15.19772054,0.0002033,97.4514,226.8236,168.2967,191.8316,0,U,46310,999,9642,0.00062162,0.00013247,0,6884.666,94.751,507.931,505.131,PAYLOAD,SMALL,US,9/3/2020,FRGUI,,3478283,205222064,0 SPACEBEE-13,1 46310U 20061AQ  22154.15307228  .00013247  00000-0  62162-3 0  9992,2 46310  97.4514 226.8236 0002033 168.2967 191.8316 15.19772054 96423,,,,,,,514.666,,7.608998204
2,GENERATED VIA SPACE-TRACK.ORG API,2022-06-03T06:26:12,18 SPCS,SPACEBEE-14,2020-061AR,EARTH,TEME,UTC,SGP4,2022-06-03T03:56:02.539392,15.1964813,0.0001986,97.4515,226.8134,165.2569,194.8724,0,U,46311,999,9641,0.00057935,0.00012295,0,6885.04,94.759,508.273,505.538,PAYLOAD,SMALL,US,9/3/2020,FRGUI,,3478039,205215579,0 SPACEBEE-14,1 46311U 20061AR  22154.16391828  .00012295  00000-0  57935-3 0  9997,2 46311  97.4515 226.8134 0001986 165.2569 194.8724 15.19648130 96415,,,,,,,515.04,,7.608791539
2,GENERATED VIA SPACE-TRACK.ORG API,2022-06-03T06:46:12,18 SPCS,TTU100,2020-061AS,EARTH,TEME,UTC,SGP4,2022-06-03T04:41:34.685376,15.14278341,0.0002632,97.4489,225.4377,201.5709,243.1383,0,U,46312,999,9634,0.00035868,6.50E-05,0,6901.307,95.095,524.989,521.356,PAYLOAD,MEDIUM,EST,9/3/2020,FRGUI,,3478209,205219443,0 TTU100,1 46312U 20061AS  22154.19554034  .00006499  00000-0  35868-3 0  9991,2 46312  97.4489 225.4377 0002632 201.5709 243.1383 15.14278341 96348,,,,,,,531.307,,7.599818946
2,GENERATED VIA SPACE-TRACK.ORG API,2022-06-03T02:31:39,18 SPCS,FLOCK 4V 1,2020-061AT,EARTH,TEME,UTC,SGP4,2022-06-02T15:26:45.564288,15.14007828,0.0002468,97.4493,224.7898,204.5366,155.5749,0,U,46313,999,9624,0.00019802,3.53E-05,0,6902.129,95.112,525.698,522.291,PAYLOAD,MEDIUM,US,9/3/2020,FRGUI,,3477983,205209153,0 FLOCK 4V 1,1 46313U 20061AT  22153.64358292  .00003531  00000-0  19802-3 0  9993,2 46313  97.4493 224.7898 0002468 204.5366 155.5749 15.14007828 96244,,,,,,,532.129,,7.599366387
2,GENERATED VIA SPACE-TRACK.ORG API,2022-06-03T02:31:39,18 SPCS,FLOCK 4V 4,2020-061AU,EARTH,TEME,UTC,SGP4,2022-06-02T16:06:18.332928,15.14050784,0.0002649,97.4493,224.7589,206.7042,153.4053,0,U,46314,999,9629,0.00032988,5.93E-05,0,6901.999,95.109,525.692,522.035,PAYLOAD,MEDIUM,US,9/3/2020,FRGUI,,3477983,205209403,0 FLOCK 4V 4,1 46314U 20061AU  22153.67104552  .00005934  00000-0  32988-3 0  9994,2 46314  97.4493 224.7589 0002649 206.7042 153.4053 15.14050784 96297,,,,,,,531.999,,7.599437954
2,GENERATED VIA SPACE-TRACK.ORG API,2022-06-03T07:16:12,18 SPCS,LEMUR 2 SCHMIDTFALL,2020-061AV,EARTH,TEME,UTC,SGP4,2022-06-03T04:32:29.989536,15.17296297,0.0002756,97.4512,226.4357,175.8545,184.2712,0,U,46315,999,9644,0.00040223,7.95E-05,0,6892.153,94.906,515.917,512.119,PAYLOAD,SMALL,US,9/3/2020,FRGUI,,3478504,205227192,0 LEMUR 2 SCHMIDTFALL,1 46315U 20061AV  22154.18923599  .00007952  00000-0  40223-3 0  9995,2 46315  97.4512 226.4357 0002756 175.8545 184.2712 15.17296297 96440,,,,,,,522.153,,7.604864224
2,GENERATED VIA SPACE-TRACK.ORG API,2022-06-02T17:55:29,18 SPCS,LEMUR 2 DJUPROERA,2020-061AW,EARTH,TEME,UTC,SGP4,2022-06-02T11:37:10.649856,15.17698641,0.0002791,97.4504,225.8003,182.0712,178.051,0,U,46316,999,9634,0.000479,9.60E-05,0,6890.935,94.88,514.723,510.877,PAYLOAD,SMALL,US,9/3/2020,FRGUI,,3477482,205175073,0 LEMUR 2 DJUPROERA,1 46316U 20061AW  22153.48415104  .00009595  00000-0  47900-3 0  9990,2 46316  97.4504 225.8003 0002791 182.0712 178.0510 15.17698641 96343,,,,,,,520.935,,7.605536289
2,GENERATED VIA SPACE-TRACK.ORG API,2022-06-03T06:36:13,18 SPCS,LEMUR 2 SQUAREJAWS,2020-061AX,EARTH,TEME,UTC,SGP4,2022-06-03T03:48:49.015296,15.17543486,0.000283,97.4507,226.4421,176.8352,183.29,0,U,46317,999,9645,0.00042057,8.38E-05,0,6891.405,94.89,515.22,511.319,PAYLOAD,SMALL,US,9/3/2020,FRGUI,,3478141,205218465,0 LEMUR 2 SQUAREJAWS,1 46317U 20061AX  22154.15890064  .00008377  00000-0  42057-3 0  9993,2 46317  97.4507 226.4421 0002830 176.8352 183.2900 15.17543486 96452,,,,,,,521.405,,7.605276933
2,GENERATED VIA SPACE-TRACK.ORG API,2022-06-03T06:36:13,18 SPCS,LEMUR 2 URSA AVION,2020-061AY,EARTH,TEME,UTC,SGP4,2022-06-03T03:41:38.097888,15.17494209,0.000301,97.4504,226.4444,176.5115,183.614,0,U,46318,999,9645,0.00045159,8.99E-05,0,6891.554,94.893,515.493,511.344,PAYLOAD,SMALL,US,9/3/2020,FRGUI,,3478095,205217303,0 LEMUR 2 URSA AVION,1 46318U 20061AY  22154.15391317  .00008988  00000-0  45159-3 0  9995,2 46318  97.4504 226.4444 0003010 176.5115 183.6140 15.17494209 96458,,,,,,,521.554,,7.605194717
2,GENERATED VIA SPACE-TRACK.ORG API,2022-06-03T02:31:39,18 SPCS,KEPLER-2 (TARS),2020-061AZ,EARTH,TEME,UTC,SGP4,2022-06-02T15:06:02.437632,15.13610605,0.0002752,97.4478,224.7633,177.3817,182.7429,0,U,46319,999,9630,0.0001694,2.98E-05,0,6903.337,95.137,527.102,523.302,PAYLOAD,MEDIUM,CA,9/3/2020,FRGUI,,3477983,205209655,0 KEPLER-2 (TARS),1 46319U 20061AZ  22153.62919488  .00002977  00000-0  16940-3 0  9990,2 46319  97.4478 224.7633 0002752 177.3817 182.7429 15.13610605 96300,,,,,,,533.337,,7.59870146
2,GENERATED VIA SPACE-TRACK.ORG API,2022-06-03T07:16:12,18 SPCS,NAPA-1,2020-061BA,EARTH,TEME,UTC,SGP4,2022-06-03T05:04:15.504384,15.12655151,0.0002927,97.4474,225.0621,170.2316,256.8893,0,U,46320,999,9637,0.00020169,3.46E-05,0,6906.244,95.197,530.13,526.087,PAYLOAD,MEDIUM,THAI,9/3/2020,FRGUI,,3478475,205226097,0 NAPA-1,1 46320U 20061BA  22154.21129056  .00003463  00000-0  20169-3 0  9991,2 46320  97.4474 225.0621 0002927 170.2316 256.8893 15.12655151 96378,,,,,,,536.244,,7.597102056
2,GENERATED VIA SPACE-TRACK.ORG API,2022-06-03T06:26:12,18 SPCS,FLOCK 4V 2,2020-061BB,EARTH,TEME,UTC,SGP4,2022-06-03T03:52:17.909760,15.15263055,0.000279,97.4488,225.6346,204.2276,155.8826,0,U,46321,999,9627,0.00029927,5.57E-05,0,6898.317,95.033,522.107,518.257,PAYLOAD,MEDIUM,US,9/3/2020,FRGUI,,3478045,205216173,0 FLOCK 4V 2,1 46321U 20061BB  22154.16131840  .00005565  00000-0  29927-3 0  9996,2 46321  97.4488 225.6346 0002790 204.2276 155.8826 15.15263055 96279,,,,,,,528.317,,7.601465797
2,GENERATED VIA SPACE-TRACK.ORG API,2022-06-03T02:31:39,18 SPCS,STARLINK-1734,2020-062A,EARTH,TEME,UTC,SGP4,2022-06-02T16:25:29.996544,15.06403243,0.000164,53.0567,28.7559,48.6719,311.4411,0,U,46325,999,9815,2.66E-05,1.15E-06,0,6925.339,95.592,548.339,546.068,PAYLOAD,LARGE,US,9/3/2020,AFETR,,3477983,205208654,0 STARLINK-1734,1 46325U 20062A   22153.68437496  .00000115  00000-0  26634-4 0  9992,2 46325  53.0567  28.7559 0001640  48.6719 311.4411 15.06403243 98156,,,,,,,555.339,,7.586621211
2,GENERATED VIA SPACE-TRACK.ORG API,2022-06-03T06:26:12,18 SPCS,STARLINK-1654,2020-062B,EARTH,TEME,UTC,SGP4,2022-06-03T01:39:13.492224,15.03951965,0.0002018,53.057,72.1483,54.3864,305.7312,0,U,46326,999,9715,0.00022989,2.93E-05,0,6932.862,95.748,556.126,553.328,PAYLOAD,LARGE,US,9/3/2020,AFETR,,3478064,205215948,0 STARLINK-1654,1 46326U 20062B   22154.06890616  .00002933  00000-0  22989-3 0  9991,2 46326  53.0570  72.1483 0002018  54.3864 305.7312 15.03951965 97156,,,,,,,562.862,,7.58250389
2,GENERATED VIA SPACE-TRACK.ORG API,2022-06-03T06:36:13,18 SPCS,STARLINK-1673,2020-062C,EARTH,TEME,UTC,SGP4,2022-06-03T04:02:49.055712,15.06399332,0.0001402,53.0544,71.5776,69.2039,290.91,0,U,46327,999,9716,-6.03E-07,-2.90E-06,0,6925.351,95.592,548.187,546.245,PAYLOAD,LARGE,US,9/3/2020,AFETR,,3478115,205217541,0 STARLINK-1673,1 46327U 20062C   22154.16862333 -.00000290  00000-0 -60334-6 0  9993,2 46327  53.0544  71.5776 0001402  69.2039 290.9100 15.06399332 97169,,,,,,,555.351,,7.586614639
2,GENERATED VIA SPACE-TRACK.ORG API,2022-06-03T06:36:13,18 SPCS,STARLINK-1686,2020-062D,EARTH,TEME,UTC,SGP4,2022-06-03T03:33:36.681408,15.0639911,0.0002161,53.0569,51.672,48.1124,312.0049,0,U,46328,999,9743,2.47E-05,8.70E-07,0,6925.351,95.592,548.713,545.72,PAYLOAD,LARGE,US,9/3/2020,AFETR,,3478119,205218108,0 STARLINK-1686,1 46328U 20062D   22154.14834122  .00000087  00000-0  24728-4 0  9994,2 46328  53.0569  51.6720 0002161  48.1124 312.0049 15.06399110 97431,,,,,,,555.351,,7.586614639
2,GENERATED VIA SPACE-TRACK.ORG API,2022-06-03T06:36:13,18 SPCS,STARLINK-1695,2020-062E,EARTH,TEME,UTC,SGP4,2022-06-03T02:45:51.649632,15.06399597,0.0001707,53.0569,51.8125,52.57,307.5444,0,U,46329,999,9743,-8.38E-05,-1.53E-05,0,6925.35,95.592,548.397,546.033,PAYLOAD,LARGE,US,9/3/2020,AFETR,,3478129,205217762,0 STARLINK-1695,1 46329U 20062E   22154.11518113 -.00001530  00000-0 -83838-4 0  9994,2 46329  53.0569  51.8125 0001707  52.5700 307.5444 15.06399597 97434,,,,,,,555.35,,7.586615186
